NUSAT-1 (FRESCO)        
1 41557U 16033B   22187.22058479  .00007535  00000+0  22372-3 0  9990
2 41557  97.3894 284.9541 0009355 314.5575 129.3427 15.35042141340268
BEESAT-4                
1 41619U 16040W   22186.41192325  .00009715  00000+0  32095-3 0  9991
2 41619  97.2150 236.5647 0010718  61.3605 298.8713 15.31526925323474
CAS-2T & KS-1Q          
1 41847U 16066G   22186.77490327  .00000751  00000+0  12153-3 0  9998
2 41847  98.5500 251.4264 0364379 154.9291 207.0094 14.38612586296980
NAYIF-1 (EO-88)         
1 42017U 17008BX  22186.75351657  .00009524  00000+0  28180-3 0  9999
2 42017  97.2674 252.6061 0005789 162.2650 197.8796 15.35092432299881
ZHUHAI-1 02 (CAS-4B)    
1 42759U 17034B   22187.48087874  .00001416  00000+0  93842-4 0  9999
2 42759  43.0169 227.8147 0008558  39.9667 103.8056 15.12015927279238
ZHUHAI-1 01 (CAS-4A)    
1 42761U 17034D   22187.51588209  .00001585  00000+0  10325-3 0  9995
2 42761  43.0166 226.3910 0008776  42.5385 103.1501 15.12103058279241
MAX VALIER SAT          
1 42778U 17036P   22186.67033143  .00005066  00000+0  19230-3 0  9995
2 42778  97.2035 227.1468 0008770 257.7130 102.3128 15.27236753279683
RADFXSAT (FOX-1B)       
1 43017U 17073E   22186.67653072  .00002253  00000+0  17178-3 0  9996
2 43017  97.6731  80.1243 0249573 127.9507 234.4546 14.81479063249814
FOX-1D (AO-92)          
1 43137U 18004AC  22186.74049786  .00005923  00000+0  20864-3 0  9996
2 43137  97.3676 261.7350 0005921 301.5682  58.4980 15.29665078249147
DIWATA-2B               
1 43678U 18084H   22187.15840161  .00000483  00000+0  53171-4 0  9990
2 43678  97.9740 320.6456 0008871 217.3423 142.7147 14.92196506200649
ES'HAIL 2               
1 43700U 18090A   22186.80714756  .00000156  00000+0  00000+0 0  9999
2 43700   0.0191  38.6574 0001141  80.6992 120.7808  1.00270775 13213
FOX-1CLIFF (AO-95)      
1 43770U 18099N   22186.71081526  .00001309  00000+0  12008-3 0  9993
2 43770  97.6196 252.5869 0013565 209.2274 150.8190 14.96500781195745
ITASAT 1                
1 43786U 18099AE  22186.70236450  .00000747  00000+0  70402-4 0  9995
2 43786  97.6226 253.5076 0014248 202.3079 157.7525 14.96640068195788
JY1SAT (JO-97)          
1 43803U 18099AX  22186.71404567  .00001483  00000+0  13310-3 0  9994
2 43803  97.6182 253.2788 0014374 201.0841 158.9791 14.97146145195808
UWE-4                   
1 43880U 18111E   22187.50200546  .00001751  00000+0  15219-3 0  9991
2 43880  97.6685  93.4813 0009643 256.1860 103.8290 14.98247132190558
NEXUS (FO-99)           
1 43937U 19003F   22186.53677202  .00007690  00000+0  25692-3 0  9998
2 43937  97.1289 219.1859 0022517  90.4414 269.9408 15.31037474192744
PSAT2 (NO-104)          
1 44354U 19036R   22186.85912180  .00040367 -58388-5  34098-3 0  9997
2 44354  28.5256  50.5440 0222628 178.4201 181.7138 15.41863177167526
JAISAT-1                
1 44419U 19038F   22187.36233450  .00004712  00000+0  23701-3 0  9998
2 44419  97.6365 157.6401 0021161  68.4421 291.9064 15.17542300165922
DUCHIFAT-3              
1 44854U 19089C   22186.82622654  .00001860  00000+0  14842-3 0  9992
2 44854  36.9677 351.4167 0008987   2.3321 147.3760 15.01171365140693
CAS-6 (TO-108)          
1 44881U 19093C   22187.21673893  .00000287  00000+0  43006-4 0  9999
2 44881  97.8927 266.1570 0016204 122.2174 238.0620 14.81745466137556
RS-44 & BREEZE-KM R/B   
1 44909U 19096E   22186.56338960  .00000004  00000+0 -22280-4 0  9992
2 44909  82.5200 218.2442 0216171 277.4463  80.2125 12.79713789117820
ORBITAL FACTORY 2 (OF-2)
1 45113U 19071C   22187.56836596  .00016214  00000+0  33198-3 0  9990
2 45113  51.6394 325.2584 0009597 243.5142 116.4861 15.46201959136339
HUSKYSAT-1 (HO-107)     
1 45119U 19071J   22187.39207875  .00014453  00000+0  30741-3 0  9993
2 45119  51.6389 326.3046 0009374 238.4498 121.5573 15.45183163136291
BY70-2                  
1 45857U 20042B   22187.22269755  .00003560  00000+0  47702-3 0  9991
2 45857  97.9558 263.8855 0011725  63.9587 296.2855 14.79989639108231
SALSAT                  
1 46495U 20068K   22186.78508375  .00001823  00000+0  13419-3 0  9990
2 46495  97.7302 128.0917 0015659 211.4510 148.5781 15.04572269 96949
BY70-3                  
1 46839U 20079N   22187.25504303  .00015051  00000+0  34734-3 0  9995
2 46839  97.1969 259.1100 0003958 250.3821 194.8946 15.42634862 93146
RADFXSAT-2 (AO-109)     
1 47311U 21002C   22187.54253109  .00004690  00000+0  19353-3 0  9992
2 47311  60.6861 290.3742 0019811 353.2185   6.8632 15.25529793 81382
UVSQ-SAT                
1 47438U 21006AB  22187.42425744  .00003402  00000+0  18103-3 0  9991
2 47438  97.4359 246.0457 0011400 200.9683 159.1083 15.15860627 80159
DIY-1 (ARDUIQUBE)       
1 47963U 21022AH  22186.72342962  .00008478  00000+0  46967-3 0  9991
2 47963  97.5306  87.8740 0019223  71.3363 288.9953 15.13900644 69715
XW-3 (CAS-9)            
1 50466U 21131B   22187.16111043  .00000033  00000+0  25457-4 0  9998
2 50466  98.5803 264.4062 0005920  95.7502 264.4361 14.38505118 27601
TEVEL-3                 
1 50988U 22002E   22187.19063742  .00003890  00000+0  21405-3 0  9992
2 50988  97.4807 253.8606 0009448   9.5584  52.6129 15.14605210 26258
TEVEL-8                 
1 50989U 22002F   22187.47230336  .00003920  00000+0  21595-3 0  9993
2 50989  97.4818 254.1573 0009256   7.9230 117.7143 15.14555713 26290
TEVEL-5                 
1 50998U 22002Q   22186.81507201  .00003673  00000+0  19958-3 0  9993
2 50998  97.4798 253.5912 0010983   5.5070  88.2856 15.15078686 26206
TEVEL-6                 
1 50999U 22002R   22187.13773567  .00003813  00000+0  20702-3 0  9995
2 50999  97.4798 253.9071 0010754   4.2350  50.5136 15.15087049 26251
TEVEL-1                 
1 51013U 22002AF  22186.80271475  .00003707  00000+0  20432-3 0  9999
2 51013  97.4799 253.4623 0009486  10.6103  84.1415 15.14576455 26194
TEVEL-7                 
1 51062U 22002CG  22186.80729704  .00003680  00000+0  20306-3 0  9996
2 51062  97.4806 253.4906 0009446   9.5749  84.7639 15.14538925 26194
TEVEL-4                 
1 51063U 22002CH  22186.80785235  .00003641  00000+0  20100-3 0  9997
2 51063  97.4810 253.4885 0009480  10.1619  84.1459 15.14530647 26195
TEVEL-2                 
1 51069U 22002CP  22187.19144756  .00003855  00000+0  21217-3 0  9990
2 51069  97.4803 253.8503 0009496   9.1530  51.4748 15.14597466 26258
